STARLINK-32818          
1 63036U 25034H   26068.93624495  .00037603  00000+0  12754-2 0  9995
2 63036  53.1577 257.0476 0001163  88.3908 271.7226 15.30196256 59128
HERMES-3                
1 63835U 25052BR  26068.93751242  .00020316  00000+0  69958-3 0  9995
2 63835  97.3987 324.6131 0007993 112.9583 247.2502 15.30039785 54863
